TIANMU-1 11             
1 58645U 23205A   25106.91017438  .00023075  00000+0  10275-2 0  9990
2 58645  97.3770 131.0395 0011932  71.1279 289.1250 15.21395102 72597
TIANMU-1 12             
1 58646U 23205B   25106.92653733  .00024643  00000+0  10955-2 0  9993
2 58646  97.3758 130.9272 0009867  66.2839 293.9432 15.21458894 72589
TIANMU-1 13             
1 58647U 23205C   25106.95747567  .00024220  00000+0  10760-2 0  9991
2 58647  97.3784 131.0734 0009720  48.7580 311.4492 15.21485016 72588
TIANMU-1 14             
1 58648U 23205D   25106.87697029  .00024766  00000+0  11007-2 0  9990
2 58648  97.3714 130.5618 0010408  51.6901 308.5269 15.21460104 72571
TIANMU-1 19             
1 58660U 23208A   25106.88905626  .00029552  00000+0  12489-2 0  9996
2 58660  97.4218 219.6130 0005995  36.7678 323.3969 15.23173052 72266
TIANMU-1 20             
1 58661U 23208B   25106.86736068  .00029769  00000+0  12132-2 0  9992
2 58661  97.4154 219.8053 0008728  42.5275 317.6637 15.24379299 72302
TIANMU-1 21             
1 58662U 23208C   25106.86755755  .00033151  00000+0  12800-2 0  9999
2 58662  97.4196 220.8078 0008179  41.1592 319.0262 15.26168571 72351
TIANMU-1 22             
1 58663U 23208D   25106.87607599  .00028464  00000+0  12020-2 0  9998
2 58663  97.4211 219.7064 0005103  61.8144 298.3608 15.23210706 72277
TIANMU-1 15             
1 58700U 24004A   25106.93823910  .00024667  00000+0  10934-2 0  9992
2 58700  97.4655 289.9066 0008688  70.7496 289.4679 15.21567624 70855
TIANMU-1 16             
1 58701U 24004B   25106.92297382  .00025712  00000+0  11402-2 0  9993
2 58701  97.4588 289.4846 0008998  72.9342 287.2879 15.21542149 70853
TIANMU-1 17             
1 58702U 24004C   25106.91302820  .00024907  00000+0  11081-2 0  9995
2 58702  97.4628 289.7568 0006895  70.4623 289.7357 15.21453317 70847
TIANMU-1 18             
1 58703U 24004D   25106.89162138  .00024019  00000+0  10681-2 0  9998
2 58703  97.4645 289.8856 0006992  63.4192 296.7759 15.21476107 70845
INSAT-3DS               
1 58990U 24033A   25106.90755140 -.00000146  00000+0  00000+0 0  9998
2 58990   0.0686  87.3821 0001789 301.2315 225.4941  1.00272770 42797
METEOR-M2 4             
1 59051U 24039A   25106.83004643  .00000223  00000+0  11959-3 0  9994
2 59051  98.6448  67.9807 0006528 333.6410  26.4435 14.22358498 58653
