[
  {
    "OBJECT_NAME": "TIANMU-1 11",
    "OBJECT_ID": "2023-205A",
    "EPOCH": "2025-04-16T21:50:39.066432",
    "MEAN_MOTION": 15.21395102,
    "ECCENTRICITY": 0.0011932,
    "INCLINATION": 97.377,
    "RA_OF_ASC_NODE": 131.0395,
    "ARG_OF_PERICENTER": 71.1279,
    "MEAN_ANOMALY": 289.125,
    "EPHEMERIS_TYPE": 0,
    "CLASSIFICATION_TYPE": "U",
    "NORAD_CAT_ID": 58645,
    "ELEMENT_SET_NO": 999,
    "REV_AT_EPOCH": 7259,
    "BSTAR": 0.0010275,
    "MEAN_MOTION_DOT": 0.00023075,
    "MEAN_MOTION_DDOT": 0
  },
  {
    "OBJECT_NAME": "TIANMU-1 12",
    "OBJECT_ID": "2023-205B",
    "EPOCH": "2025-04-16T22:14:12.825312",
    "MEAN_MOTION": 15.21458894,
    "ECCENTRICITY": 0.0009867,
    "INCLINATION": 97.3758,
    "RA_OF_ASC_NODE": 130.9272,
    "ARG_OF_PERICENTER": 66.2839,
    "MEAN_ANOMALY": 293.9432,
    "EPHEMERIS_TYPE": 0,
    "CLASSIFICATION_TYPE": "U",
    "NORAD_CAT_ID": 58646,
    "ELEMENT_SET_NO": 999,
    "REV_AT_EPOCH": 7258,
    "BSTAR": 0.0010955,
    "MEAN_MOTION_DOT": 0.00024643,
    "MEAN_MOTION_DDOT": 0
  },
  {
    "OBJECT_NAME": "TIANMU-1 13",
    "OBJECT_ID": "2023-205C",
    "EPOCH": "2025-04-16T22:58:45.897888",
    "MEAN_MOTION": 15.21485016,
    "ECCENTRICITY": 0.000972,
    "INCLINATION": 97.3784,
    "RA_OF_ASC_NODE": 131.0734,
    "ARG_OF_PERICENTER": 48.758,
    "MEAN_ANOMALY": 311.4492,
    "EPHEMERIS_TYPE": 0,
    "CLASSIFICATION_TYPE": "U",
    "NORAD_CAT_ID": 58647,
    "ELEMENT_SET_NO": 999,
    "REV_AT_EPOCH": 7258,
    "BSTAR": 0.001076,
    "MEAN_MOTION_DOT": 0.0002422,
    "MEAN_MOTION_DDOT": 0
  },
  {
    "OBJECT_NAME": "TIANMU-1 14",
    "OBJECT_ID": "2023-205D",
    "EPOCH": "2025-04-16T21:02:50.233056",
    "MEAN_MOTION": 15.21460104,
    "ECCENTRICITY": 0.0010408,
    "INCLINATION": 97.3714,
    "RA_OF_ASC_NODE": 130.5618,
    "ARG_OF_PERICENTER": 51.6901,
    "MEAN_ANOMALY": 308.5269,
    "EPHEMERIS_TYPE": 0,
    "CLASSIFICATION_TYPE": "U",
    "NORAD_CAT_ID": 58648,
    "ELEMENT_SET_NO": 999,
    "REV_AT_EPOCH": 7257,
    "BSTAR": 0.0011007,
    "MEAN_MOTION_DOT": 0.00024766,
    "MEAN_MOTION_DDOT": 0
  },
  {
    "OBJECT_NAME": "TIANMU-1 19",
    "OBJECT_ID": "2023-208A",
    "EPOCH": "2025-04-16T21:20:14.460864",
    "MEAN_MOTION": 15.23173052,
    "ECCENTRICITY": 0.0005995,
    "INCLINATION": 97.4218,
    "RA_OF_ASC_NODE": 219.613,
    "ARG_OF_PERICENTER": 36.7678,
    "MEAN_ANOMALY": 323.3969,
    "EPHEMERIS_TYPE": 0,
    "CLASSIFICATION_TYPE": "U",
    "NORAD_CAT_ID": 58660,
    "ELEMENT_SET_NO": 999,
    "REV_AT_EPOCH": 7226,
    "BSTAR": 0.0012489,
    "MEAN_MOTION_DOT": 0.00029552,
    "MEAN_MOTION_DDOT": 0
  },
  {
    "OBJECT_NAME": "TIANMU-1 20",
    "OBJECT_ID": "2023-208B",
    "EPOCH": "2025-04-16T20:48:59.962752",
    "MEAN_MOTION": 15.24379299,
    "ECCENTRICITY": 0.0008728,
    "INCLINATION": 97.4154,
    "RA_OF_ASC_NODE": 219.8053,
    "ARG_OF_PERICENTER": 42.5275,
    "MEAN_ANOMALY": 317.6637,
    "EPHEMERIS_TYPE": 0,
    "CLASSIFICATION_TYPE": "U",
    "NORAD_CAT_ID": 58661,
    "ELEMENT_SET_NO": 999,
    "REV_AT_EPOCH": 7230,
    "BSTAR": 0.0012132,
    "MEAN_MOTION_DOT": 0.00029769,
    "MEAN_MOTION_DDOT": 0
  },
  {
    "OBJECT_NAME": "TIANMU-1 21",
    "OBJECT_ID": "2023-208C",
    "EPOCH": "2025-04-16T20:49:16.972320",
    "MEAN_MOTION": 15.26168571,
    "ECCENTRICITY": 0.0008179,
    "INCLINATION": 97.4196,
    "RA_OF_ASC_NODE": 220.8078,
    "ARG_OF_PERICENTER": 41.1592,
    "MEAN_ANOMALY": 319.0262,
    "EPHEMERIS_TYPE": 0,
    "CLASSIFICATION_TYPE": "U",
    "NORAD_CAT_ID": 58662,
    "ELEMENT_SET_NO": 999,
    "REV_AT_EPOCH": 7235,
    "BSTAR": 0.00128,
    "MEAN_MOTION_DOT": 0.00033151,
    "MEAN_MOTION_DDOT": 0
  },
  {
    "OBJECT_NAME": "TIANMU-1 22",
    "OBJECT_ID": "2023-208D",
    "EPOCH": "2025-04-16T21:01:32.965536",
    "MEAN_MOTION": 15.23210706,
    "ECCENTRICITY": 0.0005103,
    "INCLINATION": 97.4211,
    "RA_OF_ASC_NODE": 219.7064,
    "ARG_OF_PERICENTER": 61.8144,
    "MEAN_ANOMALY": 298.3608,
    "EPHEMERIS_TYPE": 0,
    "CLASSIFICATION_TYPE": "U",
    "NORAD_CAT_ID": 58663,
    "ELEMENT_SET_NO": 999,
    "REV_AT_EPOCH": 7227,
    "BSTAR": 0.001202,
    "MEAN_MOTION_DOT": 0.00028464,
    "MEAN_MOTION_DDOT": 0
  },
  {
    "OBJECT_NAME": "TIANMU-1 15",
    "OBJECT_ID": "2024-004A",
    "EPOCH": "2025-04-16T22:31:03.858240",
    "MEAN_MOTION": 15.21567624,
    "ECCENTRICITY": 0.0008688,
    "INCLINATION": 97.4655,
    "RA_OF_ASC_NODE": 289.9066,
    "ARG_OF_PERICENTER": 70.7496,
    "MEAN_ANOMALY": 289.4679,
    "EPHEMERIS_TYPE": 0,
    "CLASSIFICATION_TYPE": "U",
    "NORAD_CAT_ID": 58700,
    "ELEMENT_SET_NO": 999,
    "REV_AT_EPOCH": 7085,
    "BSTAR": 0.0010934,
    "MEAN_MOTION_DOT": 0.00024667,
    "MEAN_MOTION_DDOT": 0
  },
  {
    "OBJECT_NAME": "TIANMU-1 16",
    "OBJECT_ID": "2024-004B",
    "EPOCH": "2025-04-16T22:09:04.938048",
    "MEAN_MOTION": 15.21542149,
    "ECCENTRICITY": 0.0008998,
    "INCLINATION": 97.4588,
    "RA_OF_ASC_NODE": 289.4846,
    "ARG_OF_PERICENTER": 72.9342,
    "MEAN_ANOMALY": 287.2879,
    "EPHEMERIS_TYPE": 0,
    "CLASSIFICATION_TYPE": "U",
    "NORAD_CAT_ID": 58701,
    "ELEMENT_SET_NO": 999,
    "REV_AT_EPOCH": 7085,
    "BSTAR": 0.0011402,
    "MEAN_MOTION_DOT": 0.00025712,
    "MEAN_MOTION_DDOT": 0
  },
  {
    "OBJECT_NAME": "TIANMU-1 17",
    "OBJECT_ID": "2024-004C",
    "EPOCH": "2025-04-16T21:54:45.636480",
    "MEAN_MOTION": 15.21453317,
    "ECCENTRICITY": 0.0006895,
    "INCLINATION": 97.4628,
    "RA_OF_ASC_NODE": 289.7568,
    "ARG_OF_PERICENTER": 70.4623,
    "MEAN_ANOMALY": 289.7357,
    "EPHEMERIS_TYPE": 0,
    "CLASSIFICATION_TYPE": "U",
    "NORAD_CAT_ID": 58702,
    "ELEMENT_SET_NO": 999,
    "REV_AT_EPOCH": 7084,
    "BSTAR": 0.0011081,
    "MEAN_MOTION_DOT": 0.00024907,
    "MEAN_MOTION_DDOT": 0
  },
  {
    "OBJECT_NAME": "TIANMU-1 18",
    "OBJECT_ID": "2024-004D",
    "EPOCH": "2025-04-16T21:23:56.087232",
    "MEAN_MOTION": 15.21476107,
    "ECCENTRICITY": 0.0006992,
    "INCLINATION": 97.4645,
    "RA_OF_ASC_NODE": 289.8856,
    "ARG_OF_PERICENTER": 63.4192,
    "MEAN_ANOMALY": 296.7759,
    "EPHEMERIS_TYPE": 0,
    "CLASSIFICATION_TYPE": "U",
    "NORAD_CAT_ID": 58703,
    "ELEMENT_SET_NO": 999,
    "REV_AT_EPOCH": 7084,
    "BSTAR": 0.0010681,
    "MEAN_MOTION_DOT": 0.00024019,
    "MEAN_MOTION_DDOT": 0
  },
  {
    "OBJECT_NAME": "INSAT-3DS",
    "OBJECT_ID": "2024-033A",
    "EPOCH": "2025-04-16T21:46:52.440960",
    "MEAN_MOTION": 1.0027277,
    "ECCENTRICITY": 0.0001789,
    "INCLINATION": 0.0686,
    "RA_OF_ASC_NODE": 87.3821,
    "ARG_OF_PERICENTER": 301.2315,
    "MEAN_ANOMALY": 225.4941,
    "EPHEMERIS_TYPE": 0,
    "CLASSIFICATION_TYPE": "U",
    "NORAD_CAT_ID": 58990,
    "ELEMENT_SET_NO": 999,
    "REV_AT_EPOCH": 4279,
    "BSTAR": 0,
    "MEAN_MOTION_DOT": -1.46e-6,
    "MEAN_MOTION_DDOT": 0
  },
  {
    "OBJECT_NAME": "METEOR-M2 4",
    "OBJECT_ID": "2024-039A",
    "EPOCH": "2025-04-16T19:55:16.011552",
    "MEAN_MOTION": 14.22358498,
    "ECCENTRICITY": 0.0006528,
    "INCLINATION": 98.6448,
    "RA_OF_ASC_NODE": 67.9807,
    "ARG_OF_PERICENTER": 333.641,
    "MEAN_ANOMALY": 26.4435,
    "EPHEMERIS_TYPE": 0,
    "CLASSIFICATION_TYPE": "U",
    "NORAD_CAT_ID": 59051,
    "ELEMENT_SET_NO": 999,
    "REV_AT_EPOCH": 5865,
    "BSTAR": 0.00011959,
    "MEAN_MOTION_DOT": 2.23e-6,
    "MEAN_MOTION_DDOT": 0
  }
]
